{"fetched_at":"2026-03-30T06:02:59Z","count":15439,"tles":[{"name":"STARLINK-30979","line1":"1 58485U 23186N   26087.91125860  .00005670  00000+0  21532-3 0  9998","line2":"2 58485  43.0005 315.2820 0001358 271.7484  88.3212 15.27594141128829","category":"Starlink"}]}